IRIDIUM 171             
1 43929U 19002H   25177.83026544  .00000028  00000+0  29960-5 0  9993
2 43929  86.3996 142.3986 0002019  80.9268 279.2156 14.34217617338022
IRIDIUM 170             
1 43930U 19002J   25177.35423144  .00000611  00000+0  92973-4 0  9990
2 43930  86.6113 142.3499 0002758  80.4260 279.7269 14.72256425346902
IRIDIUM 167             
1 43931U 19002K   25177.33554340  .00000003  00000+0 -59169-5 0  9999
2 43931  86.3991 142.3578 0002098  73.7401 286.4026 14.34217493337952
IRIDIUM 181             
1 56726U 23068S   25177.51600472  .00000200  00000+0  53565-4 0  9991
2 56726  86.4521 205.3387 0001762  92.4264 267.7138 14.43310066111134
IRIDIUM 177             
1 56727U 23068T   25177.80573144  .00000596  00000+0  74927-4 0  9992
2 56727  86.1987 137.5648 0002399  84.5698 275.5797 14.80229331113791
IRIDIUM 174             
1 56728U 23068U   25177.34187082  .00000642  00000+0  97851-4 0  9997
2 56728  86.6121 142.4661 0003007  93.7958 266.3603 14.72254891113665
IRIDIUM 178             
1 56729U 23068V   25177.93003467  .00000354  00000+0  43130-4 0  9998
2 56729  86.6568 173.7678 0002713  91.6145 268.5387 14.80232516113813
IRIDIUM 179             
1 56730U 23068W   25177.45144598  .00000399  00000+0  49110-4 0  9991
2 56730  86.6811 181.8651 0002600  88.4062 271.7457 14.80233481113742
